{
  "type": "FeatureCollection",
  "features": [
    {
      "type": "Feature",
      "properties": {
        "norad_id": 51444,
        "name": "CSG-2",
        "group": "resource",
        "lat": -0.4010522004668182,
        "lon": -15.201940916814442,
        "alt_km": 625.7652080264606,
        "timestamp": "2025-12-09T11:33:54.458228+00:00",
        "meta_object_name": "CSG-2",
        "meta_object_id": "2022-008A",
        "meta_epoch": "2025-12-09T04:16:24.301056",
        "meta_mean_motion": 14.82155809,
        "meta_eccentricity": 0.0001503,
        "meta_inclination": 97.8801,
        "meta_ra_of_asc_node": 164.5545,
        "meta_arg_of_pericenter": 82.4706,
        "meta_mean_anomaly": 277.6678,
        "meta_ephemeris_type": 0,
        "meta_classification_type": "U",
        "meta_norad_cat_id": 51444,
        "meta_element_set_no": 999,
        "meta_rev_at_epoch": 20844,
        "meta_bstar": 2.9971e-05,
        "meta_mean_motion_dot": 1.86e-06,
        "meta_mean_motion_ddot": 0,
        "tle_line1": "1 51444U 22008A   25343.17805904  .00000186  00000+0  29971-4 0  9997",
        "tle_line2": "2 51444  97.8801 164.5545 0001503  82.4706 277.6678 14.82155809208443"
      },
      "geometry": {
        "type": "Point",
        "coordinates": [
          -15.201940916814442,
          -0.4010522004668182
        ]
      }
    },
    {
      "type": "Feature",
      "properties": {
        "norad_id": 52912,
        "name": "GAOFEN-12 03",
        "group": "resource",
        "lat": 52.421381218585864,
        "lon": 61.23175251298961,
        "alt_km": 624.9603686253722,
        "timestamp": "2025-12-09T11:33:54.458238+00:00",
        "meta_object_name": "GAOFEN-12 03",
        "meta_object_id": "2022-069A",
        "meta_epoch": "2025-12-09T04:30:07.186752",
        "meta_mean_motion": 14.79596728,
        "meta_eccentricity": 0.0002299,
        "meta_inclination": 97.8482,
        "meta_ra_of_asc_node": 230.6184,
        "meta_arg_of_pericenter": 65.7357,
        "meta_mean_anomaly": 294.4094,
        "meta_ephemeris_type": 0,
        "meta_classification_type": "U",
        "meta_norad_cat_id": 52912,
        "meta_element_set_no": 999,
        "meta_rev_at_epoch": 18651,
        "meta_bstar": 0.0002853,
        "meta_mean_motion_dot": 2.087e-05,
        "meta_mean_motion_ddot": 0,
        "tle_line1": "1 52912U 22069A   25343.18758318  .00002087  00000+0  28530-3 0  9993",
        "tle_line2": "2 52912  97.8482 230.6184 0002299  65.7357 294.4094 14.79596728186519"
      },
      "geometry": {
        "type": "Point",
        "coordinates": [
          61.23175251298961,
          52.421381218585864
        ]
      }
    },
    {
      "type": "Feature",
      "properties": {
        "norad_id": 54754,
        "name": "SWOT",
        "group": "resource",
        "lat": -47.31965286344446,
        "lon": -82.40278391087575,
        "alt_km": 900.0535134976571,
        "timestamp": "2025-12-09T11:33:54.458248+00:00",
        "meta_object_name": "SWOT",
        "meta_object_id": "2022-173A",
        "meta_epoch": "2025-12-09T03:13:24.212064",
        "meta_mean_motion": 14.00173842,
        "meta_eccentricity": 3.43e-05,
        "meta_inclination": 77.6103,
        "meta_ra_of_asc_node": 291.8568,
        "meta_arg_of_pericenter": 122.4431,
        "meta_mean_anomaly": 237.6753,
        "meta_ephemeris_type": 0,
        "meta_classification_type": "U",
        "meta_norad_cat_id": 54754,
        "meta_element_set_no": 999,
        "meta_rev_at_epoch": 15255,
        "meta_bstar": 7.3773e-05,
        "meta_mean_motion_dot": 1.06e-06,
        "meta_mean_motion_ddot": 0,
        "tle_line1": "1 54754U 22173A   25343.13430801  .00000106  00000+0  73773-4 0  9994",
        "tle_line2": "2 54754  77.6103 291.8568 0000343 122.4431 237.6753 14.00173842152558"
      },
      "geometry": {
        "type": "Point",
        "coordinates": [
          -82.40278391087575,
          -47.31965286344446
        ]
      }
    },
    {
      "type": "Feature",
      "properties": {
        "norad_id": 57654,
        "name": "GAOFEN-12 04",
        "group": "resource",
        "lat": -63.628864140112576,
        "lon": -84.42157023416777,
        "alt_km": 638.2579461797313,
        "timestamp": "2025-12-09T11:33:54.458258+00:00",
        "meta_object_name": "GAOFEN-12 04",
        "meta_object_id": "2023-123A",
        "meta_epoch": "2025-12-09T05:21:56.104992",
        "meta_mean_motion": 14.79683247,
        "meta_eccentricity": 0.0001397,
        "meta_inclination": 97.9118,
        "meta_ra_of_asc_node": 259.0341,
        "meta_arg_of_pericenter": 74.2081,
        "meta_mean_anomaly": 285.9285,
        "meta_ephemeris_type": 0,
        "meta_classification_type": "U",
        "meta_norad_cat_id": 57654,
        "meta_element_set_no": 999,
        "meta_rev_at_epoch": 12453,
        "meta_bstar": 0.00026249,
        "meta_mean_motion_dot": 1.919e-05,
        "meta_mean_motion_ddot": 0,
        "tle_line1": "1 57654U 23123A   25343.22356603  .00001919  00000+0  26249-3 0  9997",
        "tle_line2": "2 57654  97.9118 259.0341 0001397  74.2081 285.9285 14.79683247124535"
      },
      "geometry": {
        "type": "Point",
        "coordinates": [
          -84.42157023416777,
          -63.628864140112576
        ]
      }
    },
    {
      "type": "Feature",
      "properties": {
        "norad_id": 59065,
        "name": "PARS 1",
        "group": "resource",
        "lat": -24.972912946244147,
        "lon": -42.153529649699934,
        "alt_km": 451.7622340915241,
        "timestamp": "2025-12-09T11:33:54.458267+00:00",
        "meta_object_name": "PARS 1",
        "meta_object_id": "2024-039Q",
        "meta_epoch": "2025-12-09T03:52:52.804128",
        "meta_mean_motion": 15.40849655,
        "meta_eccentricity": 0.0012692,
        "meta_inclination": 97.4637,
        "meta_ra_of_asc_node": 314.019,
        "meta_arg_of_pericenter": 82.8302,
        "meta_mean_anomaly": 277.4387,
        "meta_ephemeris_type": 0,
        "meta_classification_type": "U",
        "meta_norad_cat_id": 59065,
        "meta_element_set_no": 999,
        "meta_rev_at_epoch": 9933,
        "meta_bstar": 0.00034664,
        "meta_mean_motion_dot": 0.00014183,
        "meta_mean_motion_ddot": 0,
        "tle_line1": "1 59065U 24039Q   25343.16172227  .00014183  00000+0  34664-3 0  9990",
        "tle_line2": "2 59065  97.4637 314.0190 0012692  82.8302 277.4387 15.40849655 99333"
      },
      "geometry": {
        "type": "Point",
        "coordinates": [
          -42.153529649699934,
          -24.972912946244147
        ]
      }
    },
    {
      "type": "Feature",
      "properties": {
        "norad_id": 59371,
        "name": "RESURS-P 4",
        "group": "resource",
        "lat": -40.5534203441373,
        "lon": 103.62093316689514,
        "alt_km": 477.52253581370405,
        "timestamp": "2025-12-09T11:33:54.458277+00:00",
        "meta_object_name": "RESURS-P 4",
        "meta_object_id": "2024-061A",
        "meta_epoch": "2025-12-09T04:20:02.021280",
        "meta_mean_motion": 15.32040693,
        "meta_eccentricity": 0.0001766,
        "meta_inclination": 97.2543,
        "meta_ra_of_asc_node": 289.5835,
        "meta_arg_of_pericenter": 52.9899,
        "meta_mean_anomaly": 307.1504,
        "meta_ephemeris_type": 0,
        "meta_classification_type": "U",
        "meta_norad_cat_id": 59371,
        "meta_element_set_no": 999,
        "meta_rev_at_epoch": 9466,
        "meta_bstar": 0.00016518,
        "meta_mean_motion_dot": 5.034e-05,
        "meta_mean_motion_ddot": 0,
        "tle_line1": "1 59371U 24061A   25343.18057895  .00005034  00000+0  16518-3 0  9993",
        "tle_line2": "2 59371  97.2543 289.5835 0001766  52.9899 307.1504 15.32040693 94667"
      },
      "geometry": {
        "type": "Point",
        "coordinates": [
          103.62093316689514,
          -40.5534203441373
        ]
      }
    },
    {
      "type": "Feature",
      "properties": {
        "norad_id": 59625,
        "name": "LEGION 1",
        "group": "resource",
        "lat": -82.33904985409131,
        "lon": 158.96630142841596,
        "alt_km": 522.6855448189408,
        "timestamp": "2025-12-09T11:33:54.458287+00:00",
        "meta_object_name": "LEGION 1",
        "meta_object_id": "2024-081A",
        "meta_epoch": "2025-12-09T04:02:57.280128",
        "meta_mean_motion": 15.16423123,
        "meta_eccentricity": 0.0004252,
        "meta_inclination": 97.5212,
        "meta_ra_of_asc_node": 57.8376,
        "meta_arg_of_pericenter": 332.6773,
        "meta_mean_anomaly": 27.4236,
        "meta_ephemeris_type": 0,
        "meta_classification_type": "U",
        "meta_norad_cat_id": 59625,
        "meta_element_set_no": 999,
        "meta_rev_at_epoch": 8873,
        "meta_bstar": 0.0003404,
        "meta_mean_motion_dot": 6.552e-05,
        "meta_mean_motion_ddot": 0,
        "tle_line1": "1 59625U 24081A   25343.16871852  .00006552  00000+0  34040-3 0  9998",
        "tle_line2": "2 59625  97.5212  57.8376 0004252 332.6773  27.4236 15.16423123 88733"
      },
      "geometry": {
        "type": "Point",
        "coordinates": [
          158.96630142841596,
          -82.33904985409131
        ]
      }
    }
  ]
}